      2.10          N: GNSS NAV DATA                        RINEX VERSION / TYPE
fic2rin                                 06/23/2018 00:07:38 PGM / RUN BY / DATE
                                                            END OF HEADER
19 18  6 22 23 59 44.0-4.262761212885e-04 3.069544618484e-12 0.000000000000e+00
    3.000000000000e+00-6.400000000000e+01 3.871946996420e-09 2.486127845752e+00
   -3.362074494362e-06 9.900547098368e-03 1.007132232189e-05 5.153724906921e+03
    5.183840000000e+05 5.215406417847e-08 2.201917911542e+00-1.080334186554e-07
    9.803766705892e-01 1.946562500000e+02 1.212214867558e+00-7.585315958856e-09
    5.035924052165e-11 1.000000000000e+00 2.006000000000e+03 0.000000000000e+00
    2.400000000000e+00 0.000000000000e+00-1.536682248116e-08 3.000000000000e+00
    5.112060000000e+05 4.000000000000e+00
18 18  6 22 23 59 44.0 2.491939812899e-05 4.661160346586e-12 0.000000000000e+00
    1.500000000000e+01 9.562500000000e+00 4.855916554130e-09-2.781178907013e+00
    3.743916749954e-07 1.467825379223e-02 7.836148142815e-06 5.153647686005e+03
    5.183840000000e+05 2.644956111908e-07 3.109164177785e+00-7.450580596924e-09
    9.503163621824e-01 2.197500000000e+02 1.314314500897e+00-7.981403886080e-09
    5.057353516217e-10 1.000000000000e+00 2.006000000000e+03 0.000000000000e+00
    2.400000000000e+00 0.000000000000e+00-6.984919309616e-09 1.500000000000e+01
    5.112060000000e+05 4.000000000000e+00
24 18  6 22 23 59 44.0-5.156965926290e-05-5.684341886081e-13 0.000000000000e+00
    7.200000000000e+01 9.681250000000e+01 4.747697760669e-09-2.230167358508e+00
    5.058944225311e-06 6.975630531088e-03 7.720664143562e-06 5.153646389008e+03
    5.183840000000e+05-2.235174179077e-08-3.257918269944e-02-8.195638656616e-08
    9.417545024609e-01 2.208750000000e+02 5.396390062221e-01-8.159625595444e-09
    2.371527355062e-10 1.000000000000e+00 2.006000000000e+03 0.000000000000e+00
    2.400000000000e+00 0.000000000000e+00 2.793967723846e-09 7.200000000000e+01
    5.112060000000e+05 4.000000000000e+00
 1 18  6 23  0  0  0.0-5.881860852242e-05-3.637978807092e-12 0.000000000000e+00
    4.500000000000e+01 7.593750000000e+00 4.430898850437e-09-2.517408845189e+00
    2.048909664154e-07 7.914115092717e-03 8.100643754005e-06 5.153667537689e+03
    5.184000000000e+05 8.381903171539e-08-3.126321234205e+00-1.154839992523e-07
    9.719327235278e-01 2.299375000000e+02 6.453396797080e-01-7.886042771050e-09
    5.093069289636e-10 1.000000000000e+00 2.006000000000e+03 0.000000000000e+00
    3.400000000000e+00 0.000000000000e+00 5.587935447693e-09 4.500000000000e+01
    5.112060000000e+05 4.000000000000e+00
 2 18  6 23  0  0  0.0 7.821712642908e-05-1.091393642128e-11 0.000000000000e+00
    9.200000000000e+01 1.237500000000e+01 4.828415408597e-09-2.187626414667e+00
    7.189810276031e-07 1.790122315288e-02 8.163973689079e-06 5.153760412216e+03
    5.184000000000e+05 2.700835466385e-07 3.095210812480e+00 5.401670932770e-08
    9.509979152347e-01 2.113125000000e+02-1.850401986750e+00-7.894614556670e-09
    6.264546657799e-10 1.000000000000e+00 2.006000000000e+03 0.000000000000e+00
    3.400000000000e+00 0.000000000000e+00-2.048909664154e-08 9.200000000000e+01
    5.112060000000e+05 4.000000000000e+00
 8 18  6 23  0  0  0.0-1.057065092027e-04-1.364242052659e-12 0.000000000000e+00
    4.200000000000e+01-5.768750000000e+01 4.198746323209e-09-3.437334493064e-02
   -2.982094883919e-06 3.454525023699e-03 8.549541234970e-06 5.153587585449e+03
    5.184000000000e+05 2.980232238770e-08 2.092081747122e+00-4.842877388000e-08
    9.692859799545e-01 2.167187500000e+02-4.104718071927e-01-7.991047144903e-09
    1.250052069686e-11 1.000000000000e+00 2.006000000000e+03 0.000000000000e+00
    2.400000000000e+00 0.000000000000e+00 5.122274160385e-09 4.200000000000e+01
    5.112060000000e+05 4.000000000000e+00
 5 18  6 23  0  0  0.0-5.718320608139e-06 5.684341886081e-13 0.000000000000e+00
    5.400000000000e+01-2.543750000000e+01 5.338793810763e-09 4.840834925691e-01
   -1.113861799240e-06 5.430722143501e-03 5.420297384262e-06 5.153720630646e+03
    5.184000000000e+05 2.235174179077e-08-2.105978509201e+00 4.470348358154e-08
    9.478185992605e-01 2.646562500000e+02 6.193787018262e-01-8.524997957526e-09
   -2.289381076197e-10 1.000000000000e+00 2.006000000000e+03 0.000000000000e+00
    2.400000000000e+00 0.000000000000e+00-1.117587089539e-08 5.400000000000e+01
    5.112060000000e+05 4.000000000000e+00
 3 18  6 23  0  0  0.0 9.377347305417e-05 6.480149750132e-12 0.000000000000e+00
    6.900000000000e+01-2.696875000000e+01 4.850916345851e-09 2.874368946467e+00
   -1.501291990280e-06 1.475590514019e-03 6.021931767464e-06 5.153730262756e+03
    5.184000000000e+05-7.823109626770e-08-2.083780055678e+00-7.450580596924e-09
    9.609127825373e-01 2.616250000000e+02 4.513906967258e-01-8.146410759278e-09
   -1.600066649198e-10 1.000000000000e+00 2.006000000000e+03 0.000000000000e+00
    2.400000000000e+00 0.000000000000e+00 2.328306436539e-09 6.900000000000e+01
    5.112060000000e+05 4.000000000000e+00
 7 18  6 23  0  0  0.0 1.708650961518e-04-6.366462912410e-12 0.000000000000e+00
    4.900000000000e+01 9.671875000000e+01 4.390540026472e-09 3.089998940070e+00
    4.868954420090e-06 1.177929819096e-02 7.098540663719e-06 5.153660987854e+03
    5.184000000000e+05 2.793967723846e-08 2.757230168561e-02-1.061707735062e-07
    9.586950850413e-01 2.416562500000e+02-2.521680974134e+00-7.925687279545e-09
    1.928651764659e-10 1.000000000000e+00 2.006000000000e+03 0.000000000000e+00
    2.400000000000e+00 0.000000000000e+00-1.117587089539e-08 4.900000000000e+01
    5.112060000000e+05 4.000000000000e+00
 6 18  6 23  0  0  0.0 3.937683068216e-04-3.296918293927e-12 0.000000000000e+00
    7.800000000000e+01 8.750000000000e+00 4.503401870478e-09-2.358221720143e+00
    5.252659320831e-07 1.110814511776e-03 8.432194590569e-06 5.153646757126e+03
    5.184000000000e+05 0.000000000000e+00-3.134645091785e+00 3.725290298462e-09
    9.716439010743e-01 2.231875000000e+02-1.053831728641e+00-7.932830434229e-09
    5.035924052165e-10 1.000000000000e+00 2.006000000000e+03 0.000000000000e+00
    2.400000000000e+00 0.000000000000e+00 4.656612873077e-09 7.800000000000e+01
    5.112060000000e+05 4.000000000000e+00
 4 18  6 23  0  0  0.0 7.226830348372e-05 3.524291969370e-12 0.000000000000e+00
    9.200000000000e+01-1.275000000000e+01 5.542373719255e-09 8.752947090466e-01
   -7.431954145432e-07 9.835185948759e-03 3.527849912643e-06 5.153705133438e+03
    5.184000000000e+05-1.080334186554e-07 1.085470137983e+00 0.000000000000e+00
    9.787306814786e-01 3.217812500000e+02 9.331125947879e-01-8.275701859057e-09
   -1.607209803882e-10 1.000000000000e+00 2.006000000000e+03 0.000000000000e+00
    4.850000000000e+00 6.300000000000e+01-1.955777406693e-08 9.200000000000e+01
    5.112060000000e+05 4.000000000000e+00
28 18  6 23  0  0  0.0 7.257750257850e-04 2.955857780762e-12 0.000000000000e+00
    1.000000000000e+01-2.175000000000e+01 4.196246219070e-09 5.572709448688e-01
   -1.251697540283e-06 1.946372969542e-02 4.401430487633e-06 5.153679935455e+03
    5.184000000000e+05-2.365559339523e-07 1.143648337521e+00-1.136213541031e-07
    9.855554854390e-01 3.098437500000e+02-1.518927098988e+00-8.454637883890e-09
   -2.050085394286e-10 1.000000000000e+00 2.006000000000e+03 0.000000000000e+00
    2.400000000000e+00 0.000000000000e+00-1.117587089539e-08 1.000000000000e+01
    5.112060000000e+05 4.000000000000e+00
22 18  6 23  0  0  0.0-4.346873611212e-04-1.239186531166e-11 0.000000000000e+00
    8.100000000000e+01-2.215625000000e+01 5.770597511406e-09-1.041129696648e+00
   -1.136213541031e-06 7.339617703110e-03 5.533918738365e-06 5.153779525757e+03
    5.184000000000e+05-2.067536115646e-07-2.144353776256e+00 2.980232238770e-08
    9.250612481255e-01 2.529687500000e+02-1.520342579022e+00-8.779294264274e-09
   -1.078616357272e-10 1.000000000000e+00 2.006000000000e+03 0.000000000000e+00
    2.400000000000e+00 0.000000000000e+00-1.769512891769e-08 8.100000000000e+01
    5.112060000000e+05 4.000000000000e+00
25 18  6 23  0  0  0.0-6.050616502762e-04-5.911715561524e-12 0.000000000000e+00
    4.500000000000e+01-1.134375000000e+01 4.330894684862e-09 2.030384376722e+00
   -6.593763828278e-07 7.482006913051e-03 3.220513463020e-06 5.153628746033e+03
    5.184000000000e+05-6.146728992462e-08 1.060408338309e+00-8.568167686462e-08
    9.739241573361e-01 3.240937500000e+02 8.699323506428e-01-8.230699984549e-09
   -6.143113028173e-11 1.000000000000e+00 2.006000000000e+03 0.000000000000e+00
    2.400000000000e+00 0.000000000000e+00 6.053596735001e-09 4.500000000000e+01
    5.112060000000e+05 4.000000000000e+00
15 18  6 23  0  0  0.0-3.521400503814e-04 6.821210263297e-13 0.000000000000e+00
    4.800000000000e+01-9.937500000000e+00 5.155214735386e-09-1.215667981817e+00
   -5.401670932770e-07 1.031821651850e-02 1.034699380398e-05 5.153763225555e+03
    5.184000000000e+05 2.812594175339e-07-1.121179595253e+00-2.980232238770e-08
    9.279377327427e-01 1.617812500000e+02 6.812088408197e-01-8.236414508296e-09
   -4.539474801632e-10 1.000000000000e+00 2.006000000000e+03 0.000000000000e+00
    2.400000000000e+00 0.000000000000e+00-1.117587089539e-08 4.800000000000e+01
    5.112060000000e+05 4.000000000000e+00
23 18  6 23  0  0  0.0-2.155196852982e-04 5.684341886081e-13 0.000000000000e+00
    4.700000000000e+01 1.115625000000e+01 4.764127016442e-09-1.679240066769e+00
    4.116445779800e-07 1.261166413315e-02 9.829178452492e-06 5.153778974533e+03
    5.184000000000e+05 2.104789018631e-07-1.051648042528e+00-1.192092895508e-07
    9.432618391218e-01 1.785937500000e+02-2.349797516624e+00-7.912115285646e-09
   -2.903692379014e-10 1.000000000000e+00 2.006000000000e+03 0.000000000000e+00
    2.400000000000e+00 0.000000000000e+00-2.002343535423e-08 4.700000000000e+01
    5.112060000000e+05 4.000000000000e+00
